start=new Date('2022-07-18T00:00:00.000Z').valueOf();
sats=[{"SEMIMAJOR_AXIS":"6925.371","ARG_OF_PERICENTER":"62.6536","MEAN_MOTION_DDOT":"0.0000000000000","MEAN_MOTION_DOT":"0.00001745","DECAY_DATE":null,"MEAN_ANOMALY":"297.4638","OBJECT_NAME":"STARLINK-2622","FILE":"3516387","RCS_SIZE":"LARGE","TIME_SYSTEM":"UTC","REV_AT_EPOCH":"6642","TLE_LINE2":"2 48360  53.0531 216.2732 0001819  62.6536 297.4638 15.06392753 66428","PERIOD":"95.593","CENTER_NAME":"EARTH","SITE":"AFETR","INCLINATION":"53.0531","MEAN_ELEMENT_THEORY":"SGP4","EPOCH":"2022-07-17T18:57:49.461984","EPHEMERIS_TYPE":"0","REF_FRAME":"TEME","PERIAPSIS":"545.976","CLASSIFICATION_TYPE":"U","TLE_LINE1":"1 48360U 21038H   22198.79015581  .00001745  00000-0  13608-3 0  9991","MEAN_MOTION":"15.06392753","ELEMENT_SET_NO":"999","COUNTRY_CODE":"US","OBJECT_TYPE":"PAYLOAD","APOAPSIS":"548.495","NORAD_CAT_ID":"48360","OBJECT_ID":"2021-038H","LAUNCH_DATE":"2021-05-04","ECCENTRICITY":"0.00018190","BSTAR":"0.00013608000000","GP_ID":"208338574","RA_OF_ASC_NODE":"216.2732"},{"SEMIMAJOR_AXIS":"6925.350","ARG_OF_PERICENTER":"72.6130","MEAN_ANOMALY":"287.5029","OBJECT_NAME":"STARLINK-2591","MEAN_MOTION_DDOT":"0.0000000000000","MEAN_MOTION_DOT":"0.00004604","DECAY_DATE":null,"FILE":"3516387","RCS_SIZE":"LARGE","TIME_SYSTEM":"UTC","PERIOD":"95.592","CENTER_NAME":"EARTH","SITE":"AFETR","INCLINATION":"53.0537","REV_AT_EPOCH":"6643","TLE_LINE2":"2 48361  53.0537 215.9738 0001559  72.6130 287.5029 15.06399579 66437","MEAN_ELEMENT_THEORY":"SGP4","CLASSIFICATION_TYPE":"U","PERIAPSIS":"546.135","EPOCH":"2022-07-17T20:28:03.770688","EPHEMERIS_TYPE":"0","REF_FRAME":"TEME","ELEMENT_SET_NO":"999","TLE_LINE1":"1 48361U 21038J   22198.85282142  .00004604  00000-0  32781-3 0  9998","MEAN_MOTION":"15.06399579","COUNTRY_CODE":"US","OBJECT_TYPE":"PAYLOAD","NORAD_CAT_ID":"48361","APOAPSIS":"548.295","ECCENTRICITY":"0.00015590","OBJECT_ID":"2021-038J","LAUNCH_DATE":"2021-05-04","BSTAR":"0.00032781000000","GP_ID":"208337832","RA_OF_ASC_NODE":"215.9738"},{"MEAN_MOTION_DOT":"0.00000299","MEAN_MOTION_DDOT":"0.0000000000000","DECAY_DATE":null,"MEAN_ANOMALY":"302.3203","OBJECT_NAME":"STARLINK-2578","SEMIMAJOR_AXIS":"6925.349","ARG_OF_PERICENTER":"57.7951","EPOCH":"2022-07-17T18:04:43.726368","EPHEMERIS_TYPE":"0","REF_FRAME":"TEME","PERIAPSIS":"546.036","CLASSIFICATION_TYPE":"U","MEAN_ELEMENT_THEORY":"SGP4","REV_AT_EPOCH":"6642","TLE_LINE2":"2 48362  53.0527 216.5106 0001701  57.7951 302.3203 15.06399703 66425","PERIOD":"95.592","CENTER_NAME":"EARTH","INCLINATION":"53.0527","SITE":"AFETR","FILE":"3516387","TIME_SYSTEM":"UTC","RCS_SIZE":"LARGE","OBJECT_TYPE":"PAYLOAD","COUNTRY_CODE":"US","TLE_LINE1":"1 48362U 21038K   22198.75328387  .00000299  00000-0  38978-4 0  9991","MEAN_MOTION":"15.06399703","ELEMENT_SET_NO":"999","RA_OF_ASC_NODE":"216.5106","BSTAR":"0.00003897800000","GP_ID":"208338082","OBJECT_ID":"2021-038K","LAUNCH_DATE":"2021-05-04","ECCENTRICITY":"0.00017010","APOAPSIS":"548.392","NORAD_CAT_ID":"48362"},{"SITE":"AFETR","INCLINATION":"53.0544","CENTER_NAME":"EARTH","PERIOD":"95.593","TLE_LINE2":"2 48363  53.0544 211.3862 0001552  76.6339 283.4822 15.06391793 66495","REV_AT_EPOCH":"6649","RCS_SIZE":"LARGE","TIME_SYSTEM":"UTC","FILE":"3516387","PERIAPSIS":"546.164","CLASSIFICATION_TYPE":"U","REF_FRAME":"TEME","EPHEMERIS_TYPE":"0","EPOCH":"2022-07-17T18:18:40.895712","MEAN_ELEMENT_THEORY":"SGP4","OBJECT_NAME":"STARLINK-2626","MEAN_ANOMALY":"283.4822","DECAY_DATE":null,"MEAN_MOTION_DOT":"0.00002030","MEAN_MOTION_DDOT":"0.0000000000000","ARG_OF_PERICENTER":"76.6339","SEMIMAJOR_AXIS":"6925.374","ECCENTRICITY":"0.00015520","LAUNCH_DATE":"2021-05-04","OBJECT_ID":"2021-038L","NORAD_CAT_ID":"48363","APOAPSIS":"548.314","RA_OF_ASC_NODE":"211.3862","BSTAR":"0.00015518000000","GP_ID":"208338832","ELEMENT_SET_NO":"999","MEAN_MOTION":"15.06391793","TLE_LINE1":"1 48363U 21038L   22198.76297333  .00002030  00000-0  15518-3 0  9998","OBJECT_TYPE":"PAYLOAD","COUNTRY_CODE":"US"},{"BSTAR":"-0.00003604700000","GP_ID":"208339074","RA_OF_ASC_NODE":"211.5187","NORAD_CAT_ID":"48364","APOAPSIS":"548.247","ECCENTRICITY":"0.00014810","LAUNCH_DATE":"2021-05-04","OBJECT_ID":"2021-038M","COUNTRY_CODE":"US","OBJECT_TYPE":"PAYLOAD","ELEMENT_SET_NO":"999","MEAN_MOTION":"15.06397490","TLE_LINE1":"1 48364U 21038M   22198.77771904 -.00000818  00000-0 -36047-4 0  9996","MEAN_ELEMENT_THEORY":"SGP4","CLASSIFICATION_TYPE":"U","PERIAPSIS":"546.196","REF_FRAME":"TEME","EPHEMERIS_TYPE":"0","EPOCH":"2022-07-17T18:39:54.925056","RCS_SIZE":"LARGE","TIME_SYSTEM":"UTC","FILE":"3516387","SITE":"AFETR","INCLINATION":"53.0522","CENTER_NAME":"EARTH","PERIOD":"95.592","TLE_LINE2":"2 48364  53.0522 211.5187 0001481  69.5447 290.5700 15.06397490 66490","REV_AT_EPOCH":"6649","ARG_OF_PERICENTER":"69.5447","SEMIMAJOR_AXIS":"6925.356","OBJECT_NAME":"STARLINK-2611","MEAN_ANOMALY":"290.5700","DECAY_DATE":null,"MEAN_MOTION_DDOT":"0.0000000000000","MEAN_MOTION_DOT":"-0.00000818"},{"MEAN_MOTION":"15.06392590","TLE_LINE1":"1 48365U 21038N   22198.73715476 -.00000082  00000-0  13410-4 0  9996","ELEMENT_SET_NO":"999","COUNTRY_CODE":"US","OBJECT_TYPE":"PAYLOAD","APOAPSIS":"548.270","NORAD_CAT_ID":"48365","LAUNCH_DATE":"2021-05-04","OBJECT_ID":"2021-038N","ECCENTRICITY":"0.00014930","BSTAR":"0.00001341000000","GP_ID":"208337333","RA_OF_ASC_NODE":"211.5062","ARG_OF_PERICENTER":"81.9847","SEMIMAJOR_AXIS":"6925.371","DECAY_DATE":null,"MEAN_MOTION_DDOT":"0.0000000000000","MEAN_MOTION_DOT":"-0.00000082","OBJECT_NAME":"STARLINK-2608","MEAN_ANOMALY":"278.1311","RCS_SIZE":"LARGE","TIME_SYSTEM":"UTC","FILE":"3516387","TLE_LINE2":"2 48365  53.0525 211.5062 0001493  81.9847 278.1311 15.06392590 66497","REV_AT_EPOCH":"6649","SITE":"AFETR","INCLINATION":"53.0525","CENTER_NAME":"EARTH","PERIOD":"95.593","MEAN_ELEMENT_THEORY":"SGP4","EPHEMERIS_TYPE":"0","REF_FRAME":"TEME","EPOCH":"2022-07-17T17:41:30.171264","CLASSIFICATION_TYPE":"U","PERIAPSIS":"546.202"},{"NORAD_CAT_ID":"48366","APOAPSIS":"548.190","ECCENTRICITY":"0.00013930","OBJECT_ID":"2021-038P","LAUNCH_DATE":"2021-05-04","GP_ID":"208337583","BSTAR":"0.00003553100000","RA_OF_ASC_NODE":"206.5648","ELEMENT_SET_NO":"999","TLE_LINE1":"1 48366U 21038P   22198.72471160  .00000248  00000-0  35531-4 0  9996","MEAN_MOTION":"15.06396185","COUNTRY_CODE":"US","OBJECT_TYPE":"PAYLOAD","FILE":"3516387","RCS_SIZE":"LARGE","TIME_SYSTEM":"UTC","PERIOD":"95.592","CENTER_NAME":"EARTH","SITE":"AFETR","INCLINATION":"53.0552","REV_AT_EPOCH":"6655","TLE_LINE2":"2 48366  53.0552 206.5648 0001393  78.7942 281.3203 15.06396185 66558","MEAN_ELEMENT_THEORY":"SGP4","CLASSIFICATION_TYPE":"U","PERIAPSIS":"546.261","EPOCH":"2022-07-17T17:23:35.082240","REF_FRAME":"TEME","EPHEMERIS_TYPE":"0","SEMIMAJOR_AXIS":"6925.360","ARG_OF_PERICENTER":"78.7942","MEAN_ANOMALY":"281.3203","OBJECT_NAME":"STARLINK-2631","MEAN_MOTION_DDOT":"0.0000000000000","MEAN_MOTION_DOT":"0.00000248","DECAY_DATE":null},{"ARG_OF_PERICENTER":"67.5550","SEMIMAJOR_AXIS":"6925.359","DECAY_DATE":null,"MEAN_MOTION_DDOT":"0.0000000000000","MEAN_MOTION_DOT":"0.00002111","OBJECT_NAME":"STARLINK-2643","MEAN_ANOMALY":"292.5606","RCS_SIZE":"LARGE","TIME_SYSTEM":"UTC","FILE":"3516387","TLE_LINE2":"2 48367  53.0531 206.5814 0001581  67.5550 292.5606 15.06396535 66551","REV_AT_EPOCH":"6655","INCLINATION":"53.0531","SITE":"AFETR","CENTER_NAME":"EARTH","PERIOD":"95.592","MEAN_ELEMENT_THEORY":"SGP4","REF_FRAME":"TEME","EPHEMERIS_TYPE":"0","EPOCH":"2022-07-17T17:18:16.163424","PERIAPSIS":"546.129","CLASSIFICATION_TYPE":"U","MEAN_MOTION":"15.06396535","TLE_LINE1":"1 48367U 21038Q   22198.72102041  .00002111  00000-0  16061-3 0  9993","ELEMENT_SET_NO":"999","COUNTRY_CODE":"US","OBJECT_TYPE":"PAYLOAD","APOAPSIS":"548.319","NORAD_CAT_ID":"48367","LAUNCH_DATE":"2021-05-04","OBJECT_ID":"2021-038Q","ECCENTRICITY":"0.00015810","GP_ID":"208338333","BSTAR":"0.00016061000000","RA_OF_ASC_NODE":"206.5814"},{"MEAN_MOTION_DOT":"0.00001414","MEAN_MOTION_DDOT":"0.0000000000000","DECAY_DATE":null,"MEAN_ANOMALY":"302.2121","OBJECT_NAME":"STARLINK-2623","SEMIMAJOR_AXIS":"6925.348","ARG_OF_PERICENTER":"57.9061","REV_AT_EPOCH":"6711","TLE_LINE2":"2 48368  53.0538 207.8447 0001985  57.9061 302.2121 15.06400305 67118","PERIOD":"95.592","CENTER_NAME":"EARTH","SITE":"AFETR","INCLINATION":"53.0538","FILE":"3516213","RCS_SIZE":"LARGE","TIME_SYSTEM":"UTC","EPOCH":"2022-07-17T11:59:51.878400","EPHEMERIS_TYPE":"0","REF_FRAME":"TEME","CLASSIFICATION_TYPE":"U","PERIAPSIS":"545.838","MEAN_ELEMENT_THEORY":"SGP4","TLE_LINE1":"1 48368U 21038R   22198.49990600  .00001414  00000-0  11383-3 0  9991","MEAN_MOTION":"15.06400305","ELEMENT_SET_NO":"999","OBJECT_TYPE":"PAYLOAD","COUNTRY_CODE":"US","OBJECT_ID":"2021-038R","LAUNCH_DATE":"2021-05-04","ECCENTRICITY":"0.00019850","APOAPSIS":"548.587","NORAD_CAT_ID":"48368","RA_OF_ASC_NODE":"207.8447","GP_ID":"208312753","BSTAR":"0.00011383000000"},{"MEAN_ANOMALY":"295.8267","OBJECT_NAME":"STARLINK-2641","MEAN_MOTION_DOT":"0.00000087","MEAN_MOTION_DDOT":"0.0000000000000","DECAY_DATE":null,"SEMIMAJOR_AXIS":"6925.318","ARG_OF_PERICENTER":"64.2898","PERIOD":"95.592","CENTER_NAME":"EARTH","INCLINATION":"53.0530","SITE":"AFETR","REV_AT_EPOCH":"6657","TLE_LINE2":"2 48369  53.0530 205.9993 0001712  64.2898 295.8267 15.06409838 66570","FILE":"3516387","TIME_SYSTEM":"UTC","RCS_SIZE":"LARGE","CLASSIFICATION_TYPE":"U","PERIAPSIS":"545.998","EPOCH":"2022-07-17T20:24:02.961792","EPHEMERIS_TYPE":"0","REF_FRAME":"TEME","MEAN_ELEMENT_THEORY":"SGP4","ELEMENT_SET_NO":"999","TLE_LINE1":"1 48369U 21038S   22198.85003428  .00000087  00000-0  24737-4 0  9998","MEAN_MOTION":"15.06409838","OBJECT_TYPE":"PAYLOAD","COUNTRY_CODE":"US","ECCENTRICITY":"0.00017120","OBJECT_ID":"2021-038S","LAUNCH_DATE":"2021-05-04","NORAD_CAT_ID":"48369","APOAPSIS":"548.369","RA_OF_ASC_NODE":"205.9993","GP_ID":"208337833","BSTAR":"0.00002473700000"}];
